48801,ONEWEB-0216,2021,109.46,148.0,+,87.9,Active,1,LEO,Russia,UK,Commercial,Communications,Soyuz,1 48801U 21045AL  24078.45546871 -.00000005  00000+0 -47184-4 0  9998,2 48801  87.8969  62.5474 0002092  78.0135 282.1230 13.15546837136398,13.15546837,0.0002092,LEO
48802,ONEWEB-0239,2021,109.46,148.0,+,87.9,Active,1,LEO,Russia,UK,Commercial,Communications,Soyuz,1 48802U 21045AM  24078.46022554  .00000032  00000+0  50924-4 0  9991,2 48802  87.8976  62.5141 0001031  68.4741 291.6499 13.15549107136436,13.15549107,0.0001031,LEO
48967,ONEWEB-0249,2021,109.37,148.0,+,87.91,Active,1,LEO,Russia,UK,Commercial,Communications,Soyuz,1 48967U 21060A   24078.43693817 -.00000006  00000+0 -49605-4 0  9990,2 48967  87.9118  32.1134 0001920  80.4650 279.6698 13.16594920131618,13.1659492,0.000192,LEO
48968,ONEWEB-0250,2021,109.37,148.0,+,87.91,Active,1,LEO,Russia,UK,Commercial,Communications,Soyuz,1 48968U 21060B   24078.36569591 -.00000031  00000+0 -11433-3 0  9999,2 48968  87.9117  32.1114 0001597  78.7209 281.4102 13.16593893131581,13.16593893,0.0001597,LEO
48970,ONEWEB-0252,2021,109.37,148.0,+,87.91,Active,1,LEO,Russia,UK,Commercial,Communications,Soyuz,1 48970U 21060D   24078.39260721  .00000089  00000+0  19839-3 0  9997,2 48970  87.9119  32.1154 0001998  77.1786 282.9568 13.16593327131650,13.16593327,0.0001998,LEO
48971,ONEWEB-0253,2021,109.37,148.0,+,87.91,Active,1,LEO,Russia,UK,Commercial,Communications,Soyuz,1 48971U 21060E   24078.38152407  .00000098  00000+0  22359-3 0  9999,2 48971  87.9114  32.1315 0001734  71.2237 288.9082 13.16595916131584,13.16595916,0.0001734,LEO
48972,ONEWEB-0254,2021,109.37,148.0,+,87.91,Active,1,LEO,Russia,UK,Commercial,Communications,Soyuz,1 48972U 21060F   24078.39102611  .00000126  00000+0  29628-3 0  9991,2 48972  87.9117  32.1057 0001725  70.1710 289.9607 13.16594331131589,13.16594331,0.0001725,LEO
48973,ONEWEB-0255,2021,109.37,148.0,+,87.91,Active,1,LEO,Russia,UK,Commercial,Communications,Soyuz,1 48973U 21060G   24078.35303143 -.00000035  00000+0 -12595-3 0  9997,2 48973  87.9120  32.1483 0001845  84.8332 275.3010 13.16593546131654,13.16593546,0.0001845,LEO
